ONEWEB-0620             
1 55161U 23004X   24144.56313014 -.00000155  00000+0 -47175-3 0  9994
2 55161  87.8969 171.2378 0001992  76.9748 283.1602 13.11417805 66924
ONEWEB-0621             
1 55162U 23004Y   24144.59028184  .00006179  00000+0  17400-1 0  9995
2 55162  87.8975 171.2022 0001707  95.8646 264.2677 13.11369568 66901
ONEWEB-0622             
1 55163U 23004Z   24144.59538793 -.00000810  00000+0 -23217-2 0  9990
2 55163  87.8967 171.2179 0001842  66.8065 293.3256 13.11421525 66895
ONEWEB-0623             
1 55164U 23004AA  24144.59263188  .00000048  00000+0  89583-4 0  9995
2 55164  87.9167 156.0859 0001360  72.4743 287.6537 13.17650078 68215
ONEWEB-0624             
1 55165U 23004AB  24144.52437643  .00000458  00000+0  12389-2 0  9991
2 55165  87.8933 140.8980 0001749  83.9054 276.2274 13.12444938 69062
ONEWEB-0625             
1 55166U 23004AC  24144.58154921  .00000041  00000+0  72129-4 0  9991
2 55166  87.9167 156.0871 0001953  96.6696 263.4658 13.17646855 68207
ONEWEB-0626             
1 55167U 23004AD  24144.57205688  .00000100  00000+0  22391-3 0  9999
2 55167  87.9166 156.0898 0002390  78.8354 281.3046 13.17646997 68202
ONEWEB-0627             
1 55168U 23004AE  24144.56097992  .00000076  00000+0  16139-3 0  9991
2 55168  87.9166 156.0932 0001651  66.9899 293.1407 13.17650952 68201
